{"type": "FeatureCollection", "features": [{"type": "Feature", "geometry": {"type": "Polygon", "coordinates": [[[0.009141512392632941, -0.031199523187214865], [1.0225135358741937, 0.028216941491736414], [0.9414689443403849, 0.9609346147941304], [0.003835212095018561, 0.9905127222296926], [0.009141512392632941, -0.031199523187214865]]]}, "properties": {"county_id": "C00"}}, {"type": "Feature", "geometry": {"type": "Polygon", "coordinates": [[[1.0263819392458848, 0.02333375806286845], [2.0019809209268367, 0.033817236209040986], [2.0140252802675613, 0.9742212261135028], [1.011062523522475, 0.97123352197513], [1.0263819392458848, 0.02333375806286845]]]}, "properties": {"county_id": "C01"}}, {"type": "Feature", "geometry": {"type": "Polygon", "coordinates": [[[1.9985022226704123, -0.0055458709063578165], [2.979572113667882, 0.036676240160220905], [2.995364115537936, 0.9871501653351068], [1.9894359934853532, 1.0159692755666005], [1.9985022226704123, -0.0055458709063578165]]]}, "properties": {"county_id": "C02"}}, {"type": "Feature", "geometry": {"type": "Polygon", "coordinates": [[[3.0129246300902364, 0.06424942802611383], [3.9878075495084615, -0.01536728187214612], [3.9755868181525638, 1.018479382677265], [3.0338691687816266, 0.9965815762703537], [3.0129246300902364, 0.06424942802611383]]]}, "properties": {"county_id": "C03"}}, {"type": "Feature", "geometry": {"type": "Polygon", "coordinates": [[[3.9752655635292626, 0.01951778363474103], [5.022297625136103, 0.016294628049155848], [4.980034708781339, 1.0069648396920017], [4.003500574274222, 1.0065606579018704], [3.9752655635292626, 0.01951778363474103]]]}, "properties": {"county_id": "C04"}}, {"type": "Feature", "geometry": {"type": "Polygon", "coordinates": [[[0.020367406892156846, 1.0020273720846666], [1.0086735819606996, 1.0189386467751562], [0.95628532540433, 1.990409863509281], [-0.014111179628783865, 1.9808336645526998], [0.020367406892156846, 1.0020273720846666]]]}, "properties": {"county_id": "C05"}}, {"type": "Feature", "geometry": {"type": "Polygon", "coordinates": [[[1.044848239337032, 0.9740250665292027], [2.0290483506377446, 0.9495139068515258], [1.9899534491004267, 2.0048825919531503], [1.0175866699407783, 2.0213367973937855], [1.044848239337032, 0.9740250665292027]]]}, "properties": {"county_id": "C06"}}, {"type": "Feature", "geometry": {"type": "Polygon", "coordinates": [[[1.986129446220063, 1.0257392764377147], [2.9942608702535516, 0.9617294102998624], [2.9660013835798957, 1.9724164314199517], [2.014914822321613, 2.0042727720821167], [1.986129446220063, 1.0257392764377147]]]}, "properties": {"county_id": "C07"}}, {"type": "Feature", "geometry": {"type": "Polygon", "coordinates": [[[2.987182420609904, 1.0047561907323015], [4.01876771181902, 0.9907196038083929], [4.013703257126722, 1.9801422217680005], [2.989108384603048, 1.9885478631800502], [2.987182420609904, 1.0047561907323015]]]}, "properties": {"county_id": "C08"}}, {"type": "Feature", "geometry": {"type": "Polygon", "coordinates": [[[3.9859179297939185, 1.0003748235618306], [5.014422399767177, 1.0133959352808983], [5.019961553269184, 1.9970454354647174], [3.9873010506386755, 1.997608453672808], [3.9859179297939185, 1.0003748235618306]]]}, "properties": {"county_id": "C09"}}, {"type": "Feature", "geometry": {"type": "Polygon", "coordinates": [[[-0.043413374172692615, 1.9603190116293678], [0.9700825951719555, 2.011993226801703], [0.9728356283391981, 2.9886551233788183], [0.03897684893358196, 2.989312080868157], [-0.043413374172692615, 1.9603190116293678]]]}, "properties": {"county_id": "C10"}}, {"type": "Feature", "geometry": {"type": "Polygon", "coordinates": [[[0.9938368732639711, 1.9714993383526827], [1.9898290077229832, 2.025209244123722], [1.9481803873042296, 3.013032709306376], [1.0071320680699682, 2.9821755013290963], [0.9938368732639711, 1.9714993383526827]]]}, "properties": {"county_id": "C11"}}, {"type": "Feature", "geometry": {"type": "Polygon", "coordinates": [[[2.002163885231416, 1.984115218728086], [3.006980286340641, 2.000655564365703], [3.0480533667396275, 2.9928193311758093], [1.969295075221344, 3.0053782690486894], [2.002163885231416, 1.984115218728086]]]}, "properties": {"county_id": "C12"}}, {"type": "Feature", "geometry": {"type": "Polygon", "coordinates": [[[3.0250533373774373, 2.0107061317744854], [4.0438990867365865, 1.9643371083703145], [3.9808074540175076, 2.972202721757834], [2.988305705905327, 2.9586994155733106], [3.0250533373774373, 2.0107061317744854]]]}, "properties": {"county_id": "C13"}}, {"type": "Feature", "geometry": {"type": "Polygon", "coordinates": [[[3.9933333190870366, 1.9558758111649204], [4.9695326275637735, 2.009405415423506], [5.025143797036831, 3.0599019267507535], [4.08741587398022, 3.01243228299828], [3.9933333190870366, 1.9558758111649204]]]}, "properties": {"county_id": "C14"}}, {"type": "Feature", "geometry": {"type": "Polygon", "coordinates": [[[0.008031343870315073, 2.9756117671406903], [0.9875392821946094, 2.981637096028206], [0.9957762734075084, 4.03197940692363], [0.0047114570233603385, 3.9952409548888395], [0.008031343870315073, 2.9756117671406903]]]}, "properties": {"county_id": "C15"}}, {"type": "Feature", "geometry": {"type": "Polygon", "coordinates": [[[0.9497595116588693, 2.9854107627278], [1.9983865234754503, 3.0530378974073966], [2.0039082356441864, 4.029482185330692], [0.9850211320438255, 3.964451687007489], [0.9497595116588693, 2.9854107627278]]]}, "properties": {"county_id": "C16"}}, {"type": "Feature", "geometry": {"type": "Polygon", "coordinates": [[[2.063854091973055, 2.975358399623268], [3.0251546761120904, 2.9729121846573894], [3.0279471903862274, 4.011548528983176], [1.9953008630702573, 3.998777124215937], [2.063854091973055, 2.975358399623268]]]}, "properties": {"county_id": "C17"}}, {"type": "Feature", "geometry": {"type": "Polygon", "coordinates": [[[3.0133821660444626, 2.9863504955897766], [3.9632318270869824, 2.9616618727704114], [4.005177637531664, 4.047372737692313], [3.004799748407203, 3.9964408502167035], [3.0133821660444626, 2.9863504955897766]]]}, "properties": {"county_id": "C18"}}, {"type": "Feature", "geometry": {"type": "Polygon", "coordinates": [[[4.006581475040916, 2.987672183074988], [5.033188661301796, 3.0128626931538482], [5.04607267975988, 4.005497033116657], [3.963265929048385, 3.9589552240226302], [4.006581475040916, 2.987672183074988]]]}, "properties": {"county_id": "C19"}}]}